[{"OBJECT_NAME":"UVSQ-SAT NG","OBJECT_ID":"2025-052AT","EPOCH":"2026-03-09T16:14:06.443808","MEAN_MOTION":14.94868635,"ECCENTRICITY":0.00025988,"INCLINATION":97.6968,"RA_OF_ASC_NODE":322.0499,"ARG_OF_PERICENTER":168.7801,"MEAN_ANOMALY":191.3478,"EPHEMERIS_TYPE":0,"CLASSIFICATION_TYPE":"U","NORAD_CAT_ID":63251,"ELEMENT_SET_NO":999,"REV_AT_EPOCH":5376,"BSTAR":0.00026115974,"MEAN_MOTION_DOT":2.79e-5,"MEAN_MOTION_DDOT":0},{"OBJECT_NAME":"BREEZE-KM R\/B","OBJECT_ID":"2017-064B","EPOCH":"2026-03-09T23:37:28.009344","MEAN_MOTION":15.19279068,"ECCENTRICITY":0.01790923,"INCLINATION":98.7537,"RA_OF_ASC_NODE":74.9596,"ARG_OF_PERICENTER":357.1764,"MEAN_ANOMALY":2.8439,"EPHEMERIS_TYPE":0,"CLASSIFICATION_TYPE":"U","NORAD_CAT_ID":42970,"ELEMENT_SET_NO":999,"REV_AT_EPOCH":45981,"BSTAR":0.00038198457,"MEAN_MOTION_DOT":0.00012295,"MEAN_MOTION_DDOT":0}]
